NORAD_CAT_ID,OBJECT_NAME,OBJECT_TYPE,EPOCH,MEAN_MOTION,ECCENTRICITY,INCLINATION,RA_OF_ASC_NODE,ARG_OF_PERICENTER,MEAN_ANOMALY,BSTAR,MEAN_MOTION_DOT,MEAN_MOTION_DDOT,TLE_LINE0,TLE_LINE1,TLE_LINE2,SEMIMAJOR_AXIS,PERIOD,APOGEE,PERIGEE,DECAYED
51871.0,STARLINK-3567,PAYLOAD,2022-03-26 22:00:00,15.73259118,0.0001081,53.219,28.7901,74.0009,317.1874,-0.0005652999999999,-0.00079408,0.0,0 STARLINK-3567,1 51871U 22022V   22085.91667824 -.00079408  00000-0 -56530-3 0  9992,2 51871  53.2190  28.7901 0001081  74.0009 317.1874 15.73259118  3704,6727.727,91.53,350.319,348.86400000000015,0.0
51871.0,STARLINK-3567,PAYLOAD,2022-03-27 06:00:00,15.7318273,0.000115,53.219,27.1425,62.4125,57.7477,-9.6745e-05,-0.00014164,0.0,0 STARLINK-3567,1 51871U 22022V   22086.25001157 -.00014164  00000-0 -96745-4 0  9992,2 51871  53.2190  27.1425 0001150  62.4125  57.7477 15.73182730  4987,6727.944,91.534,350.583,349.036,0.0
51871.0,STARLINK-3567,PAYLOAD,2022-03-27 14:00:01,15.73176125,9.28e-05,53.2188,25.4911,71.043,138.0407,0.00042388,0.00059227,0.0,0 STARLINK-3567,1 51871U 22022V   22086.58334491  .00059227  00000-0  42388-3 0  9998,2 51871  53.2188  25.4911 0000928  71.0430 138.0407 15.73176125  5047,6727.9630000000025,91.535,350.45300000000015,349.204,0.0
51871.0,STARLINK-3567,PAYLOAD,2022-03-27 22:00:01,15.73061774,0.0001173,53.2174,23.8297,70.0985,227.836,0.0016602,0.00237681,0.0,0 STARLINK-3567,1 51871U 22022V   22086.91668981  .00237681  00000-0  16602-2 0  9990,2 51871  53.2174  23.8297 0001173  70.0985 227.8360 15.73061774  5091,6728.2890000000025,91.541,350.944,349.365,0.0
51871.0,STARLINK-3567,PAYLOAD,2022-03-28 06:00:00,15.73224322,0.0001187,53.2187,22.1942,69.4115,317.6039,0.00033503,0.0004671,0.0,0 STARLINK-3567,1 51871U 22022V   22087.25001157  .00046710  00000-0  33503-3 0  9995,2 51871  53.2187  22.1942 0001187  69.4115 317.6039 15.73224322  5143,6727.826,91.532,350.48900000000015,348.892,0.0
51871.0,STARLINK-3567,PAYLOAD,2022-03-28 14:00:01,15.73243369,0.0001,53.2189,20.5425,80.4432,35.6302,-0.00029913,-0.00042465,0.0,0 STARLINK-3567,1 51871U 22022V   22087.58335648 -.00042465  00000-0 -29913-3 0  9991,2 51871  53.2189  20.5425 0001000  80.4432  35.6302 15.73243369  3704,6727.772,91.531,350.309,348.964,0.0
51871.0,STARLINK-3567,PAYLOAD,2022-03-28 22:00:00,15.73241851,0.0001158,53.2193,18.8933,83.4321,121.5125,-0.00049919,-0.00070219,0.0,0 STARLINK-3567,1 51871U 22022V   22087.91667824 -.00070219  00000-0 -49919-3 0  9998,2 51871  53.2193  18.8933 0001158  83.4321 121.5125 15.73241851  5251,6727.776,91.531,350.42,348.862,0.0
51871.0,STARLINK-3567,PAYLOAD,2022-03-29 14:00:01,15.73105146,0.0001345,53.2193,15.5942,85.2121,297.5653,0.00034426,0.00047774,0.0,0 STARLINK-3567,1 51871U 22022V   22088.58334491  .00047774  00000-0  34426-3 0  9998,2 51871  53.2193  15.5942 0001345  85.2121 297.5653 15.73105146  3660,6728.166,91.539,350.936,349.126,0.0
51871.0,STARLINK-3567,PAYLOAD,2022-03-29 22:00:00,15.73158182,0.0001409999999999,53.2192,13.9457,85.6093,25.9937,0.00025739,0.00035591,0.0,0 STARLINK-3567,1 51871U 22022V   22088.91667824  .00035591  00000-0  25739-3 0  9995,2 51871  53.2192  13.9457 0001410  85.6093  25.9937 15.73158182  3663,6728.014,91.536,350.82800000000015,348.931,0.0
51871.0,STARLINK-3567,PAYLOAD,2022-03-30 12:00:00,15.73193503,0.0001105,53.2186,11.0592,84.9592,92.2423,5.1878e-05,6.665e-05,0.0,0 STARLINK-3567,1 51871U 22022V   22089.50001157  .00006665  00000-0  51878-4 0  9996,2 51871  53.2186  11.0592 0001105  84.9592  92.2423 15.73193503  5500,6727.9140000000025,91.534,350.522,349.035,0.0
51871.0,STARLINK-3567,PAYLOAD,2022-03-30 14:00:01,15.73150852,0.0001074,53.2185,10.6465,88.4098,201.0955,0.00064433,0.00090595,0.0,0 STARLINK-3567,1 51871U 22022V   22089.58335648  .00090595  00000-0  64433-3 0  9994,2 51871  53.2185  10.6465 0001074  88.4098 201.0955 15.73150852  3674,6728.035,91.536,350.62300000000016,349.17800000000005,0.0
51871.0,STARLINK-3567,PAYLOAD,2022-03-30 22:00:00,15.73245542,0.0001054,53.2181,8.9978,86.8581,291.4797,-1.7638e-05,-3.099e-05,0.0,0 STARLINK-3567,1 51871U 22022V   22089.91667824 -.00003099  00000-0 -17638-4 0  9996,2 51871  53.2181   8.9978 0001054  86.8581 291.4797 15.73245542  3720,6727.765,91.531,350.339,348.921,0.0
51871.0,STARLINK-3567,PAYLOAD,2022-03-31 06:00:00,15.73244694,9.69e-05,53.2172,7.3496,74.5554,32.7747,-0.00025196,-0.00035896,0.0,0 STARLINK-3567,1 51871U 22022V   22090.25001157 -.00035896  00000-0 -25196-3 0  9993,2 51871  53.2172   7.3496 0000969  74.5554  32.7747 15.73244694  5614,6727.768,91.531,350.285,348.981,0.0
51871.0,STARLINK-3567,PAYLOAD,2022-03-31 14:00:01,15.73212538,8.190000000000001e-05,53.2172,5.6981,92.6064,103.7089,-4.837600000000001e-05,-7.406e-05,0.0,0 STARLINK-3567,1 51871U 22022V   22090.58334491 -.00007406  00000-0 -48376-4 0  9991,2 51871  53.2172   5.6981 0000819  92.6064 103.7089 15.73212538  3691,6727.859,91.532,350.275,349.173,0.0
51871.0,STARLINK-3567,PAYLOAD,2022-03-31 22:00:00,15.73191562,7.97e-05,53.2171,4.0497,89.3052,195.9281,0.00029986,0.00041657,0.0,0 STARLINK-3567,1 51871U 22022V   22090.91667824  .00041657  00000-0  29986-3 0  9996,2 51871  53.2171   4.0497 0000797  89.3052 195.9281 15.73191562  3690,6727.919,91.534,350.32,349.24800000000016,0.0
51871.0,STARLINK-3567,PAYLOAD,2022-04-01 06:00:00,15.73276877,8.44e-05,53.2166,2.4015,73.8849,300.3207,-9.4848e-05,-0.00013952,0.0,0 STARLINK-3567,1 51871U 22022V   22091.25001157 -.00013952  00000-0 -94848-4 0  9994,2 51871  53.2166   2.4015 0000844  73.8849 300.3207 15.73276877  5771,6727.676,91.529,350.1090000000001,348.973,0.0
51871.0,STARLINK-3567,PAYLOAD,2022-04-01 14:00:01,15.73224109,9.8e-05,53.2168,0.7497,96.6005,6.617999999999999,-0.00035975,-0.00050854,0.0,0 STARLINK-3567,1 51871U 22022V   22091.58334491 -.00050854  00000-0 -35975-3 0  9997,2 51871  53.2168   0.7497 0000980  96.6005   6.6180 15.73224109  5829,6727.826,91.532,350.351,349.032,0.0
51871.0,STARLINK-3567,PAYLOAD,2022-04-01 22:00:00,15.73189852,0.0001154,53.2171,359.1013,91.111,101.026,-0.00057502,-0.00080515,0.0,0 STARLINK-3567,1 51871U 22022V   22091.91667824 -.00080515  00000-0 -57502-3 0  9990,2 51871  53.2171 359.1013 0001154  91.1110 101.0260 15.73189852  3674,6727.924,91.534,350.566,349.01300000000015,0.0
51871.0,STARLINK-3567,PAYLOAD,2022-04-02 14:00:01,15.73105522,0.0001328,53.2166,355.8014,95.3038,274.714,0.00086161,0.00121571,0.0,0 STARLINK-3567,1 51871U 22022V   22092.58335648  .00121571  00000-0  86161-3 0  9999,2 51871  53.2166 355.8014 0001328  95.3038 274.7140 15.73105522  5983,6728.165,91.539,350.923,349.136,0.0
51871.0,STARLINK-3567,PAYLOAD,2022-04-02 22:00:01,15.73246702,0.0001103,53.2164,354.1535,93.1581,5.7538,-0.00082158,-0.00114591,0.0,0 STARLINK-3567,1 51871U 22022V   22092.91668981 -.00114591  00000-0 -82158-3 0  9993,2 51871  53.2164 354.1535 0001103  93.1581   5.7538 15.73246702  3708,6727.762,91.53,350.369,348.885,0.0
51871.0,STARLINK-3567,PAYLOAD,2022-04-03 04:00:00,15.73115943,8.950000000000001e-05,53.2161,352.9175,85.9375,349.6161,0.00056905,0.00079714,0.0,0 STARLINK-3567,1 51871U 22022V   22093.16667824  .00079714  00000-0  56905-3 0  9992,2 51871  53.2161 352.9175 0000895  85.9375 349.6161 15.73115943  6075,6728.135,91.538,350.602,349.398,0.0
51871.0,STARLINK-3567,PAYLOAD,2022-04-03 14:00:01,15.73170554,9.64e-05,53.2159,350.8532,102.721,173.9173,-0.00031172,-0.00044082,0.0,0 STARLINK-3567,1 51871U 22022V   22093.58334491 -.00044082  00000-0 -31172-3 0  9990,2 51871  53.2159 350.8532 0000964 102.7210 173.9173 15.73170554  6147,6727.979,91.535,350.49300000000005,349.196,0.0
51871.0,STARLINK-3567,PAYLOAD,2022-04-03 22:00:00,15.730933800000004,0.0001138,53.2162,349.2053,93.6517,271.8459,0.0010495,0.00148622,0.0,0 STARLINK-3567,1 51871U 22022V   22093.91667824  .00148622  00000-0  10495-2 0  9993,2 51871  53.2162 349.2053 0001138  93.6517 271.8459 15.73093380  3696,6728.199000000001,91.539,350.83,349.2990000000001,0.0
51871.0,STARLINK-3567,PAYLOAD,2022-04-04 04:00:00,15.73199108,0.0001044,53.216,347.9693,83.8177,258.3043,0.00017283,0.00023703,0.0,0 STARLINK-3567,1 51871U 22022V   22094.16667824  .00023703  00000-0  17283-3 0  9996,2 51871  53.2160 347.9693 0001044  83.8177 258.3043 15.73199108  6235,6727.898,91.533,350.465,349.06,0.0
51871.0,STARLINK-3567,PAYLOAD,2022-04-04 14:00:01,15.73171257,0.0001149,53.2157,345.9049,100.9986,82.3092,0.0008259,0.00116768,0.0,0 STARLINK-3567,1 51871U 22022V   22094.58334491  .00116768  00000-0  82590-3 0  9990,2 51871  53.2157 345.9049 0001149 100.9986  82.3092 15.73171257  3702,6727.977,91.535,350.615,349.069,0.0
51871.0,STARLINK-3567,PAYLOAD,2022-04-04 22:00:00,15.73273372,0.0001078,53.2155,344.2571,93.5961,178.671,0.00020421,0.00028225,0.0,0 STARLINK-3567,1 51871U 22022V   22094.91667824  .00028225  00000-0  20421-3 0  9991,2 51871  53.2155 344.2571 0001078  93.5961 178.6710 15.73273372  6354,6727.686,91.529,350.276,348.826,0.0
51871.0,STARLINK-3567,PAYLOAD,2022-04-05 14:00:01,15.73233955,0.0001111,53.2152,340.9557,104.6705,345.7162,-0.00047229,-0.00066475,0.0,0 STARLINK-3567,1 51871U 22022V   22095.58335648 -.00066475  00000-0 -47229-3 0  9997,2 51871  53.2152 340.9557 0001111 104.6705 345.7162 15.73233955  3703,6727.7980000000025,91.531,350.411,348.916,0.0
51871.0,STARLINK-3567,PAYLOAD,2022-04-05 16:00:00,15.73221359,0.0001202,53.2155,340.5434,104.9518,97.5992,-0.00057641,-0.00080815,0.0,0 STARLINK-3567,1 51871U 22022V   22095.66667824 -.00080815  00000-0 -57641-3 0  9993,2 51871  53.2155 340.5434 0001202 104.9518  97.5992 15.73221359  6477,6727.834,91.532,350.5080000000001,348.891,0.0
51871.0,STARLINK-3567,PAYLOAD,2022-04-05 22:00:00,15.73152198,0.0001109,53.2154,339.3079,94.5122,84.7407,2.522800000000001e-05,2.915e-05,0.0,0 STARLINK-3567,1 51871U 22022V   22095.91667824  .00002915  00000-0  25228-4 0  9991,2 51871  53.2154 339.3079 0001109  94.5122  84.7407 15.73152198  3704,6728.031,91.536,350.64300000000014,349.15,0.0
